satname,norad_id,inclination_deg,eccentricity,mean_motion_rev_per_day,perigee_km,apogee_km,l1,l2
STARLINK-1376,45570,53.056,0.0001478,15.06403496,546.1772782892867,548.2244081557437,1 45570U 20025AR  25304.31188874  .00000758  00000+0  69795-4 0  9993,2 45570  53.0560 307.4181 0001478  86.3425 273.7732 15.06403496305865
STARLINK-1320,45572,53.0575,0.0009189,15.43015758,430.95199494317967,443.4772481532609,1 45572U 20025AT  25304.91668980  .00110148  00000+0  24304-2 0  9992,2 45572  53.0575 247.9538 0009189  26.0751 344.6991 15.43015758  5938
STARLINK-1321,45573,53.0558,0.0001587,15.06400279,546.1116501631523,548.3097555240347,1 45573U 20025AU  25304.69616500  .00003774  00000+0  27215-3 0  9990,2 45573  53.0558 295.6947 0001587  81.0983 279.0186 15.06400279305762
STARLINK-1328,45576,53.0509,0.0010582,15.68201584,356.912140396219,371.18129801955,1 45576U 20025AX  25304.91668980  .00223176  00000+0  19080-2 0  9997,2 45576  53.0509 270.8426 0010582  42.6071  26.8652 15.68201584  5998
STARLINK-1331,45578,53.052,0.0001209,15.06387334,546.4130983420782,548.0876570100008,1 45578U 20025AZ  25304.67403779 -.00002017  00000+0 -11661-3 0  9994,2 45578  53.0520 295.7927 0001209  76.8655 283.2469 15.06387334306076
STARLINK-1333,45580,53.0553,0.0001676,15.06400788,546.0484548192853,548.3698308463627,1 45580U 20025BB  25304.28240160 -.00002567  00000+0 -15348-3 0  9993,2 45580  53.0553 307.5488 0001676  81.8439 278.2740 15.06400788305864
STARLINK-1335,45581,53.0551,0.0001415,15.06392235,546.2554164586754,548.2152968356068,1 45581U 20025BC  25304.68509223 -.00000449  00000+0 -11281-4 0  9996,2 45581  53.0551 295.7428 0001415  91.7911 268.3240 15.06392235306066
STARLINK-1337,45582,53.0549,0.0001463,15.06397405,546.206331593351,548.2326909085423,1 45582U 20025BD  25304.70721544  .00001423  00000+0  11444-3 0  9993,2 45582  53.0549 295.6458 0001463  87.2010 272.9146 15.06397405306069
STARLINK-1347,45586,53.0557,0.0007801,15.31500955,465.9901304140649,476.67667413569416,1 45586U 20025BH  25304.64978416  .00085311  00000+0  27443-2 0  9995,2 45586  53.0557 281.3940 0007801   4.1802 355.9262 15.31500955306255
STARLINK-1360,45588,53.044,0.0005746,15.75151108,340.33856487679896,348.0638759597032,1 45588U 20025BK  25304.00995881  .00136462  00000+0  88268-3 0  9999,2 45588  53.0440 203.1642 0005746 124.7400 235.4161 15.75151108307305
STARLINK-1364,45589,53.0548,0.0001458,15.0638601,546.2447135338753,548.2641576764981,1 45589U 20025BL  25304.71090485  .00003777  00000+0  27239-3 0  9997,2 45589  53.0548 295.6315 0001458  91.4034 268.7122 15.06386010306061
STARLINK-1365,45590,53.0555,0.0001387,15.06400766,546.2486647402329,548.1697557789585,1 45590U 20025BM  25304.32847341  .00001583  00000+0  12516-3 0  9992,2 45590  53.0555 327.3436 0001387  91.3105 268.8043 15.06400766305604
STARLINK-1443,45660,53.0548,0.000166,15.06411428,546.0269309391606,548.3261350321127,1 45660U 20035D   25304.24738378  .00005308  00000+0  37484-3 0  9991,2 45660  53.0548 287.7104 0001660  94.4170 265.7008 15.06411428299229
STARLINK-1446,45663,53.0264,0.0001349,15.33642696,464.03190034464933,465.87816657527674,1 45663U 20035G   25304.58508293  .00070046  00000+0  21148-2 0  9992,2 45663  53.0264 249.0819 0001349  53.6068 306.5057 15.33642696299791
STARLINK-1448,45665,53.0538,0.0001514,15.06399606,546.1642675372996,548.2612634462903,1 45665U 20035J   25304.64915226 -.00000938  00000+0 -44049-4 0  9991,2 45665  53.0538 285.9027 0001514  90.6113 269.5049 15.06399606299275
STARLINK-1451,45668,53.0538,0.0001431,15.0640497,546.2053104470688,548.1873408448691,1 45668U 20035M   25304.25479903  .00002944  00000+0  21643-3 0  9999,2 45668  53.0538 287.9926 0001431  85.2754 274.8398 15.06404970299229
STARLINK-1452,45669,53.0413,0.0011484,15.26535257,478.2962357116003,494.06219719755245,1 45669U 20035N   25304.62531419  .00082796  00000+0  31000-2 0  9992,2 45669  53.0413 267.2726 0011484  21.7247 338.4236 15.26535257299540
STARLINK-1453,45670,53.0539,0.0001471,15.06389929,546.223700961441,548.2611475880612,1 45670U 20035P   25304.59663354  .00002266  00000+0  17099-3 0  9991,2 45670  53.0539 256.1422 0001471  79.2167 280.8987 15.06389929299583
STARLINK-1454,45671,53.0563,0.0001597,15.0639792,546.1119536632614,548.3239120288126,1 45671U 20035Q   25304.67496304  .00000202  00000+0  32477-4 0  9996,2 45671  53.0563 285.7919 0001597  83.3012 276.8159 15.06397920299276
STARLINK-1456,45673,53.055,0.0001393,15.06380181,546.3075914691653,548.2370105004202,1 45673U 20035S   25304.68972022 -.00001845  00000+0 -10509-3 0  9992,2 45673  53.0550 285.7259 0001393  82.2884 277.8263 15.06380181299290
STARLINK-1457,45674,53.0538,0.0001175,15.08257666,540.7108635512977,542.3369838683702,1 45674U 20035T   25304.91668980  .01089232  00000+0  64156-1 0  9994,2 45674  53.0538 284.6847 0001175 117.6147   3.5745 15.08257666  5838
STARLINK-1458,45675,53.0533,0.0001367,15.06398888,546.268270446456,548.1616616739775,1 45675U 20035U   25304.68602343  .00002232  00000+0  16868-3 0  9993,2 45675  53.0533 285.7367 0001367  92.8403 267.2742 15.06398888299252
STARLINK-1460,45676,53.0526,0.0001486,15.06403092,546.1729760323178,548.2311868073157,1 45676U 20035V   25304.65653169 -.00000021  00000+0  17521-4 0  9996,2 45676  53.0526 285.8699 0001486  87.6159 272.5000 15.06403092299245
STARLINK-1392,45677,53.0549,0.0001506,15.06394515,546.185408699771,548.2713287488305,1 45677U 20035W   25304.66757594 -.00003649  00000+0 -22621-3 0  9991,2 45677  53.0549 285.8228 0001506  87.2655 272.8506 15.06394515299286
STARLINK-1394,45679,53.0567,0.0001686,15.06364587,546.1524637428101,548.4877278755166,1 45679U 20035Y   25304.66484554 -.00007389  00000+0 -47812-3 0  9990,2 45679  53.0567 275.8344 0001686  92.3308 267.7874 15.06364587299420
STARLINK-1402,45685,53.0523,0.00019,15.26635363,484.5749744192026,487.18330055144725,1 45685U 20035AE  25304.91668980  .00032951  00000+0  12482-2 0  9997,2 45685  53.0523 267.4023 0001900 110.0212 177.3501 15.26635363  5794
STARLINK-1404,45686,53.055,0.0001503,15.06399804,546.1712786715689,548.2530386286599,1 45686U 20035AF  25304.62427120  .00000487  00000+0  51569-4 0  9995,2 45686  53.0550 276.0184 0001503  92.3437 267.7724 15.06399804299420
STARLINK-1413,45689,53.0568,0.0001573,15.06400291,546.1213088774612,548.3000232532049,1 45689U 20035AJ  25304.64270912  .00000696  00000+0  65620-4 0  9990,2 45689  53.0568 275.9337 0001573  93.0710 267.0459 15.06400291299330
STARLINK-1417,45693,53.0554,0.0001662,15.06401854,546.0548837151891,548.3568676870727,1 45693U 20035AN  25304.63901398  .00000842  00000+0  75392-4 0  9993,2 45693  53.0554 275.9547 0001662  90.7436 269.3744 15.06401854299418
STARLINK-1420,45695,53.0543,0.000157,15.06401499,546.1196847206784,548.2942427252865,1 45695U 20035AQ  25304.57356520  .00001197  00000+0  99224-4 0  9993,2 45695  53.0543 256.2340 0001570  99.2915 260.8252 15.06401499299690
STARLINK-1422,45696,53.0552,0.0001558,15.06395195,546.1473130106333,548.3052562101175,1 45696U 20035AR  25304.65007516  .00000441  00000+0  48520-4 0  9995,2 45696  53.0552 275.9044 0001558  86.6030 273.5137 15.06395195299412
STARLINK-1351,45697,53.0537,0.0001389,15.06386222,546.2918490655857,548.2157226258942,1 45697U 20035AS  25304.55977470 -.00004727  00000+0 -29874-3 0  9993,2 45697  53.0537 256.3059 0001389  89.7944 270.3205 15.06386222299697
STARLINK-1398,45699,53.0502,0.0005059,15.51246316,409.6504427041009,416.5218022594281,1 45699U 20035AU  25304.77190106  .00113135  00000+0  18788-2 0  9995,2 45699  53.0502 214.9305 0005059 100.5180 259.6399 15.51246316300299
STARLINK-1400,45700,53.0539,0.0002136,15.06401523,545.7276367116228,548.6861436215013,1 45700U 20035AV  25304.86571138  .00002322  00000+0  17475-3 0  9994,2 45700  53.0539 254.9347 0002136  87.3763 272.7471 15.06401523299730
STARLINK-1403,45701,53.0554,0.0001502,15.06425068,546.0945533804279,548.1749050078779,1 45701U 20035AW  25304.09901378 -.00000745  00000+0 -31065-4 0  9994,2 45701  53.0554 258.3762 0001502  95.8253 264.2907 15.06425068299618
STARLINK-1407,45703,53.0411,0.0012193,15.41159037,434.37078350411775,451.00404592183713,1 45703U 20035AY  25304.74692521  .00052870  00000+0  12541-2 0  9995,2 45703  53.0411 214.0147 0012193  59.6639 300.5569 15.41159037300308
STARLINK-1411,45706,53.0529,0.0002576,15.40814244,441.9476156198152,445.4622285780806,1 45706U 20035BB  25304.91668980  .00142716  00000+0  33756-2 0  9999,2 45706  53.0529 240.3590 0002576 116.9215  49.7259 15.40814244  5774
STARLINK-1423,45710,53.054,0.0001295,15.06411606,546.2791594163491,548.0728154800981,1 45710U 20035BF  25304.19117303  .00005164  00000+0  36520-3 0  9990,2 45710  53.0540 257.9631 0001295  92.8133 267.3005 15.06411606299634
STARLINK-1433,45711,53.0536,0.0001709,15.06415094,545.981763225861,548.3488315511095,1 45711U 20035BG  25304.17274063  .00011192  00000+0  76875-3 0  9991,2 45711  53.0536 258.0431 0001709  98.3817 261.7365 15.06415094299621
STARLINK-1434,45712,53.0512,0.0005775,15.15469263,515.5708686306225,523.5377020651986,1 45712U 20035BH  25304.13789575  .00043580  00000+0  22777-2 0  9994,2 45712  53.0512 254.3794 0005775  64.9215 295.2377 15.15469263299683
STARLINK-1465,45731,53.0539,0.0001457,15.06388171,546.2387837896686,548.2568409239893,1 45731U 20038B   25304.73669772 -.00001950  00000+0 -11205-3 0  9992,2 45731  53.0539  95.5082 0001457  95.4054 264.7101 15.06388171296750
STARLINK-1471,45735,53.0508,0.0001097,15.40905893,442.6860963100262,444.1827490801661,1 45735U 20038F   25304.74834644  .00025726  00000+0  62399-3 0  9994,2 45735  53.0508  35.6799 0001097 139.2229 220.8857 15.40905893297601
STARLINK-1474,45738,53.0389,0.0003747,15.66779337,365.59843093718064,370.65408062106144,1 45738U 20038J   25304.39903132  .00080516  00000+0  74702-3 0  9996,2 45738  53.0389 354.6792 0003747 337.1238  22.9609 15.66779337298147
